GLOBALSTAR M035         
1 25851U 99037A   25074.93616769 -.00000092  00000+0 -10772-2 0  9995
2 25851  51.9927 262.9269 0013732 186.4343 345.2923 11.04537402 85959
GLOBALSTAR M032         
1 25852U 99037B   25074.72098272 -.00000016  00000+0  16426-2 0  9993
2 25852  51.9934  95.0476 0011329  10.2122 349.8906 11.19063046124322
GLOBALSTAR M051         
1 25853U 99037C   25074.94124718 -.00000059  00000+0  32731-3 0  9998
2 25853  51.9774 265.8397 0001624  71.8041 288.2946 11.42205015121736
GLOBALSTAR M030         
1 25854U 99037D   25074.71308977 -.00000059  00000+0  33454-3 0  9998
2 25854  51.9867  78.4338 0003774 240.7820 119.2620 11.55100325139242
GLOBALSTAR M048         
1 25872U 99041A   25074.78040181 -.00000069  00000+0  26777-4 0  9992
2 25872  51.9352 197.6470 0013087  27.0585 127.3084 11.33855133114386
GLOBALSTAR M026         
1 25873U 99041B   25074.94446291  .00000039  00000+0  38049-2 0  9992
2 25873  52.0051  21.8443 0001818  99.2920 305.4461 11.06831371138164
GLOBALSTAR M043         
1 25874U 99041C   25074.92957293 -.00000010  00000+0  17188-2 0  9991
2 25874  51.9409 301.2262 0013708 150.3371 222.9675 11.25692341112372
GLOBALSTAR M028         
1 25875U 99041D   25074.56159450 -.00000042  00000+0  37618-3 0  9997
2 25875  51.9611 112.2387 0063264 227.8668 131.6806 12.50579353178467
